ONEWEB-0020             
1 45133U 20008C   23274.91062431 -.00000554  00000+0 -16223-2 0  9991
2 45133  87.8861 232.7080 0001826  75.7723 284.3607 13.10372283179564
ONEWEB-0021             
1 45134U 20008D   23275.38338939 -.00000356  00000+0 -10572-2 0  9994
2 45134  87.8871 232.6179 0002144  77.5292 282.6075 13.10371168180023
ONEWEB-0022             
1 45135U 20008E   23275.86651522  .00000558  00000+0  15628-2 0  9993
2 45135  87.8870 232.5399 0001644  75.6480 284.4830 13.10383230179668
ONEWEB-0023             
1 45136U 20008F   23275.85452680  .00000019  00000+0  16824-4 0  9990
2 45136  87.8872 232.5174 0001753  95.8249 264.3078 13.10377010179390
ONEWEB-0024             
1 45137U 20008G   23275.82530370 -.00000515  00000+0 -15109-2 0  9997
2 45137  87.8775 232.5477 0002154  76.1267 284.0099 13.10364857179552
ONEWEB-0025             
1 45138U 20008H   23275.38501118 -.00000337  00000+0 -10012-2 0  9997
2 45138  87.8874 232.6194 0002226  85.9107 274.2274 13.10369645179827
ONEWEB-0026             
1 45139U 20008J   23275.80917459 -.00110264  00000+0 -31625+0 0  9995
2 45139  87.8974 217.3914 0001342  66.9350 293.1919 13.11117719182459
ONEWEB-0028             
1 45140U 20008K   23275.38353032 -.00000265  00000+0 -78084-3 0  9994
2 45140  87.8968 217.5237 0002521  87.9226 272.2191 13.11629680179023
